NORAD_CAT_ID,OBJECT_NAME,OBJECT_TYPE,EPOCH,MEAN_MOTION,ECCENTRICITY,INCLINATION,RA_OF_ASC_NODE,ARG_OF_PERICENTER,MEAN_ANOMALY,BSTAR,MEAN_MOTION_DOT,MEAN_MOTION_DDOT,TLE_LINE0,TLE_LINE1,TLE_LINE2,SEMIMAJOR_AXIS,PERIOD,APOGEE,PERIGEE,DECAYED
52583.0,STARLINK-3895,PAYLOAD,2024-07-02 18:20:04,15.08834845,9.23e-05,53.2165,359.6329,86.4404,273.6693,0.0013048,0.00020536,0.0,0 STARLINK-3895,1 52583U 22051AZ  24184.76394583  .00020536  00000-0  13048-2 0  9991,2 52583  53.2165 359.6329 0000923  86.4404 273.6693 15.08834845118826,6917.896,95.438,540.4,539.123,0.0
52583.0,STARLINK-3895,PAYLOAD,2024-07-02 21:30:51,15.08840665,9.64e-05,53.2168,359.0381,82.175,277.9352,0.0015087,0.00023805,0.0,0 STARLINK-3895,1 52583U 22051AZ  24184.89642576  .00023805  00000-0  15087-2 0  9990,2 52583  53.2168 359.0381 0000964  82.1750 277.9352 15.08840665118773,6917.878,95.438,540.41,539.076,0.0
52583.0,STARLINK-3895,PAYLOAD,2024-07-03 11:49:19,15.08848912,9.63e-05,53.2168,356.3609,80.3568,279.7533,0.0012104,0.00019033,0.0,0 STARLINK-3895,1 52583U 22051AZ  24185.49258796  .00019033  00000-0  12104-2 0  9999,2 52583  53.2168 356.3609 0000963  80.3568 279.7533 15.08848912118934,6917.853,95.437,540.384,539.052,0.0
52583.0,STARLINK-3895,PAYLOAD,2024-07-03 18:10:52,15.08839938,8.92e-05,53.2163,355.1712,78.1476,281.9616,0.00034091,5.142e-05,0.0,0 STARLINK-3895,1 52583U 22051AZ  24185.75754824  .00005142  00000-0  34091-3 0  9997,2 52583  53.2163 355.1712 0000892  78.1476 281.9616 15.08839938118974,6917.881,95.438,540.363,539.129,0.0
52583.0,STARLINK-3895,PAYLOAD,2024-07-04 03:43:10,15.08854383,0.0001012,53.2177,353.387,81.5374,278.5733,0.00057197,8.83e-05,0.0,0 STARLINK-3895,1 52583U 22051AZ  24186.15498342  .00008830  00000-0  57197-3 0  9991,2 52583  53.2177 353.3870 0001012  81.5374 278.5733 15.08854383119035,6917.836,95.437,540.402,539.001,0.0
52583.0,STARLINK-3895,PAYLOAD,2024-07-04 11:40:06,15.08844843,0.0001877,53.2179,351.9006,80.096,280.0244,0.00030104,4.507e-05,0.0,0 STARLINK-3895,1 52583U 22051AZ  24186.48618841  .00004507  00000-0  30104-3 0  9991,2 52583  53.2179 351.9006 0001877  80.0960 280.0244 15.08844843119086,6917.866,95.437,541.029,538.432,0.0
52583.0,STARLINK-3895,PAYLOAD,2024-07-04 14:50:52,15.08840954,0.0001176,53.2181,351.3062,101.0421,259.0704,0.00019232,2.774e-05,0.0,0 STARLINK-3895,1 52583U 22051AZ  24186.61866735  .00002774  00000-0  19232-3 0  9996,2 52583  53.2181 351.3062 0001176 101.0421 259.0704 15.08840954119034,6917.877,95.437,540.556,538.929,0.0
52583.0,STARLINK-3895,PAYLOAD,2024-07-04 18:01:39,15.08847344,0.0001023,53.2176,350.7119,89.9454,270.1655,0.00073146,0.00011375,0.0,0 STARLINK-3895,1 52583U 22051AZ  24186.75114688  .00011375  00000-0  73146-3 0  9995,2 52583  53.2176 350.7119 0001023  89.9454 270.1655 15.08847344119056,6917.858,95.437,540.431,539.015,0.0
52583.0,STARLINK-3895,PAYLOAD,2024-07-05 03:33:57,15.08863508,9.71e-05,53.2179,348.9279,87.6005,272.5098,0.0015174,0.00023959,0.0,0 STARLINK-3895,1 52583U 22051AZ  24187.14858400  .00023959  00000-0  15174-2 0  9993,2 52583  53.2179 348.9279 0000971  87.6005 272.5098 15.08863508119184,6917.809,95.436,540.345,539.002,0.0
52583.0,STARLINK-3895,PAYLOAD,2024-07-05 14:41:40,15.08844877,0.0002115,53.2177,346.8464,84.7397,275.3836,0.00074686,0.0001162,0.0,0 STARLINK-3895,1 52583U 22051AZ  24187.61226886  .00011620  00000-0  74686-3 0  9998,2 52583  53.2177 346.8464 0002115  84.7397 275.3836 15.08844877119188,6917.865,95.437,541.194,538.267,0.0
52583.0,STARLINK-3895,PAYLOAD,2024-07-05 21:03:12,15.08857177,0.0001027,53.2177,345.6568,79.5523,280.5585,0.0010413,0.00016331,0.0,0 STARLINK-3895,1 52583U 22051AZ  24187.87722446  .00016331  00000-0  10413-2 0  9990,2 52583  53.2177 345.6568 0001027  79.5523 280.5585 15.08857177119292,6917.828,95.436,540.403,538.982,0.0
52583.0,STARLINK-3895,PAYLOAD,2024-07-06 09:46:17,15.08859035,0.0003542,53.2186,343.28,80.456,279.6832,0.0017107,0.00027059,0.0,0 STARLINK-3895,1 52583U 22051AZ  24188.40714956  .00027059  00000-0  17107-2 0  9993,2 52583  53.2186 343.2800 0003542  80.4560 279.6832 15.08859035119379,6917.822,95.436,542.137,537.237,0.0
52583.0,STARLINK-3895,PAYLOAD,2024-07-06 14:32:27,15.08832832,0.0001122,53.2181,342.3865,81.4504,278.6615,0.00049771,7.64e-05,0.0,0 STARLINK-3895,1 52583U 22051AZ  24188.60586883  .00007640  00000-0  49771-3 0  9998,2 52583  53.2181 342.3865 0001122  81.4504 278.6615 15.08832832119336,6917.902,95.438,540.543,538.991,0.0
52583.0,STARLINK-3895,PAYLOAD,2024-07-06 19:18:36,15.08835088,0.000119,53.2178,341.4947,76.1235,283.989,0.0010126,0.00015862,0.0,0 STARLINK-3895,1 52583U 22051AZ  24188.80458994  .00015862  00000-0  10126-2 0  9997,2 52583  53.2178 341.4947 0001190  76.1235 283.9890 15.08835088119431,6917.895,95.438,540.584,538.937,0.0
52583.0,STARLINK-3895,PAYLOAD,2024-07-07 14:23:14,15.08840251,0.0001065,53.218,337.926,93.6264,266.485,0.00079927,0.00012455,0.0,0 STARLINK-3895,1 52583U 22051AZ  24189.59947282  .00012455  00000-0  79927-3 0  9997,2 52583  53.2180 337.9260 0001065  93.6264 266.4850 15.08840251119484,6917.88,95.438,540.481,539.008,0.0
52583.0,STARLINK-3895,PAYLOAD,2024-07-07 19:09:23,15.08849435,9.81e-05,53.217,337.0335,81.7288,278.3816,0.0016625,0.00026277,0.0,0 STARLINK-3895,1 52583U 22051AZ  24189.79819253  .00026277  00000-0  16625-2 0  9997,2 52583  53.2170 337.0335 0000981  81.7288 278.3816 15.08849435119585,6917.852,95.437,540.395,539.038,0.0
52583.0,STARLINK-3895,PAYLOAD,2024-07-08 09:27:52,15.08856459,0.0002527,53.2158,334.3601,79.5402,280.5874,0.0011626,0.00018272,0.0,0 STARLINK-3895,1 52583U 22051AZ  24190.39435511  .00018272  00000-0  11626-2 0  9998,2 52583  53.2158 334.3601 0002527  79.5402 280.5874 15.08856459119671,6917.83,95.437,541.443,537.947,0.0
52583.0,STARLINK-3895,PAYLOAD,2024-07-08 14:14:01,15.08841962,0.0001415,53.2183,333.4661,88.4107,271.7047,0.00029802,4.458e-05,0.0,0 STARLINK-3895,1 52583U 22051AZ  24190.59307359  .00004458  00000-0  29802-3 0  9995,2 52583  53.2183 333.4661 0001415  88.4107 271.7047 15.08841962119634,6917.874,95.437,540.718,538.761,0.0
52583.0,STARLINK-3895,PAYLOAD,2024-07-08 19:00:10,15.08851204,0.0001152,53.2176,332.5721,90.3643,269.7481,0.00051722,7.956e-05,0.0,0 STARLINK-3895,1 52583U 22051AZ  24190.79179108  .00007956  00000-0  51722-3 0  9998,2 52583  53.2176 332.5721 0001152  90.3643 269.7481 15.08851204119738,6917.846,95.437,540.508,538.914,0.0
52583.0,STARLINK-3895,PAYLOAD,2024-07-09 12:29:25,15.08837802,0.0001177,53.2174,329.303,88.3612,271.7515,5.2882e-05,5.54e-06,0.0,0 STARLINK-3895,1 52583U 22051AZ  24191.52043361  .00000554  00000-0  52882-4 0  9997,2 52583  53.2174 329.3030 0001177  88.3612 271.7515 15.08837802119844,6917.887,95.438,540.566,538.938,0.0
52583.0,STARLINK-3895,PAYLOAD,2024-07-09 14:04:48,15.08840914,0.0001293,53.2174,329.0059,86.8185,273.2955,0.0001843,2.647e-05,0.0,0 STARLINK-3895,1 52583U 22051AZ  24191.58667373  .00002647  00000-0  18430-3 0  9993,2 52583  53.2174 329.0059 0001293  86.8185 273.2955 15.08840914119785,6917.878,95.437,540.637,538.848,0.0
52583.0,STARLINK-3895,PAYLOAD,2024-07-09 15:40:11,15.08842387,0.0001182,53.2174,328.7081,86.111,274.0017,0.00036991,5.605e-05,0.0,0 STARLINK-3895,1 52583U 22051AZ  24191.65291325  .00005605  00000-0  36991-3 0  9990,2 52583  53.2174 328.7081 0001182  86.1110 274.0017 15.08842387119799,6917.873,95.437,540.556,538.92,0.0
52583.0,STARLINK-3895,PAYLOAD,2024-07-10 02:47:53,15.08853868,0.0001245,53.2173,326.6263,86.5368,273.5766,0.00088806,0.00013879,0.0,0 STARLINK-3895,1 52583U 22051AZ  24192.11659136  .00013879  00000-0  88806-3 0  9994,2 52583  53.2173 326.6263 0001245  86.5368 273.5766 15.08853868119933,6917.838,95.437,540.564,538.842,0.0
52583.0,STARLINK-3895,PAYLOAD,2024-07-10 09:09:26,15.08844539,0.000169,53.2204,325.4356,107.0412,253.0765,0.00045182,6.911e-05,0.0,0 STARLINK-3895,1 52583U 22051AZ  24192.38155396  .00006911  00000-0  45182-3 0  9991,2 52583  53.2204 325.4356 0001690 107.0412 253.0765 15.08844539119972,6917.867,95.437,540.901,538.562,0.0
52583.0,STARLINK-3895,PAYLOAD,2024-07-10 15:30:58,15.08842315,0.000163,53.2204,324.2485,97.7839,262.3338,0.00028992,4.329e-05,0.0,0 STARLINK-3895,1 52583U 22051AZ  24192.64651472  .00004329  00000-0  28992-3 0  9997,2 52583  53.2204 324.2485 0001630  97.7839 262.3338 15.08842315119940,6917.873,95.437,540.866,538.611,0.0
52583.0,STARLINK-3895,PAYLOAD,2024-07-11 13:46:22,15.08842469,0.0001315,53.2173,320.085,94.9894,265.1248,0.00019346,2.793e-05,0.0,0 STARLINK-3895,1 52583U 22051AZ  24193.57387433  .00002793  00000-0  19346-3 0  9999,2 52583  53.2173 320.0850 0001315  94.9894 265.1248 15.08842469120083,6917.873,95.437,540.648,538.828,0.0
52583.0,STARLINK-3895,PAYLOAD,2024-07-12 00:54:04,15.08856151,0.0001326,53.219,318.0036,94.5115,265.6028,0.00040197,6.118e-05,0.0,0 STARLINK-3895,1 52583U 22051AZ  24194.03754798  .00006118  00000-0  40197-3 0  9996,2 52583  53.2190 318.0036 0001326  94.5115 265.6028 15.08856151120229,6917.831,95.437,540.613,538.779,0.0
52583.0,STARLINK-3895,PAYLOAD,2024-07-12 13:37:10,15.08832667,0.0001532,53.2174,315.6243,97.0589,263.0578,-8.2098e-05,-1.594e-05,0.0,0 STARLINK-3895,1 52583U 22051AZ  24194.56747714 -.00001594  00000-0 -82098-4 0  9996,2 52583  53.2174 315.6243 0001532  97.0589 263.0578 15.08832667120303,6917.903,95.438,540.828,538.708,0.0
52583.0,STARLINK-3895,PAYLOAD,2024-07-12 15:12:33,15.08837461,0.000142,53.2176,315.3296,97.0433,263.0721,3.2184e-05,2.24e-06,0.0,0 STARLINK-3895,1 52583U 22051AZ  24194.63371642  .00000224  00000-0  32184-4 0  9995,2 52583  53.2176 315.3296 0001420  97.0433 263.0721 15.08837461120244,6917.888,95.438,540.735,538.771,0.0
52583.0,STARLINK-3895,PAYLOAD,2024-07-13 00:44:51,15.08851489,0.0001479,53.2181,313.5457,100.5318,259.584,0.00039338,5.98e-05,0.0,0 STARLINK-3895,1 52583U 22051AZ  24195.03115277  .00005980  00000-0  39338-3 0  9991,2 52583  53.2181 313.5457 0001479 100.5318 259.5840 15.08851489120377,6917.845,95.437,540.733,538.687,0.0
